[{
    "OBJECT_NAME": "COSMOS 2251 DEB",
    "OBJECT_ID": "1993-036LN",
    "EPOCH": "2025-11-21T08:32:41.225280",
    "MEAN_MOTION": 14.48852161,
    "ECCENTRICITY": 0.0050139,
    "INCLINATION": 74.0114,
    "RA_OF_ASC_NODE": 69.0197,
    "ARG_OF_PERICENTER": 160.8093,
    "MEAN_ANOMALY": 256.5371,
    "EPHEMERIS_TYPE": 0,
    "CLASSIFICATION_TYPE": "U",
    "NORAD_CAT_ID": 34141,
    "ELEMENT_SET_NO": 999,
    "REV_AT_EPOCH": 87384,
    "BSTAR": 0.00257,
    "MEAN_MOTION_DOT": 9.859e-5,
    "MEAN_MOTION_DDOT": 0
},{
    "OBJECT_NAME": "COSMOS 2251 DEB",
    "OBJECT_ID": "1993-036LQ",
    "EPOCH": "2025-11-22T01:34:04.550880",
    "MEAN_MOTION": 14.64993218,
    "ECCENTRICITY": 0.0048332,
    "INCLINATION": 74.0115,
    "RA_OF_ASC_NODE": 346.463,
    "ARG_OF_PERICENTER": 145.6629,
    "MEAN_ANOMALY": 214.768,
    "EPHEMERIS_TYPE": 0,
    "CLASSIFICATION_TYPE": "U",
    "NORAD_CAT_ID": 34270,
    "ELEMENT_SET_NO": 999,
    "REV_AT_EPOCH": 88793,
    "BSTAR": 0.00064019,
    "MEAN_MOTION_DOT": 3.459e-5,
    "MEAN_MOTION_DDOT": 0
},{
    "OBJECT_NAME": "COSMOS 2251 DEB",
    "OBJECT_ID": "1993-036LR",
    "EPOCH": "2025-11-21T19:41:59.216064",
    "MEAN_MOTION": 14.70080193,
    "ECCENTRICITY": 0.0020485,
    "INCLINATION": 74.0223,
    "RA_OF_ASC_NODE": 239.9477,
    "ARG_OF_PERICENTER": 296.2439,
    "MEAN_ANOMALY": 119.9515,
    "EPHEMERIS_TYPE": 0,
    "CLASSIFICATION_TYPE": "U",
    "NORAD_CAT_ID": 34271,
    "ELEMENT_SET_NO": 999,
    "REV_AT_EPOCH": 87927,
    "BSTAR": 0.0023726,
    "MEAN_MOTION_DOT": 0.000143,
    "MEAN_MOTION_DDOT": 0
},{
    "OBJECT_NAME": "COSMOS 2251 DEB",
    "OBJECT_ID": "1993-036LT",
    "EPOCH": "2025-11-21T21:38:53.301120",
    "MEAN_MOTION": 14.60927782,
    "ECCENTRICITY": 0.0014725,
    "INCLINATION": 74.0342,
    "RA_OF_ASC_NODE": 127.2585,
    "ARG_OF_PERICENTER": 251.9249,
    "MEAN_ANOMALY": 233.5064,
    "EPHEMERIS_TYPE": 0,
    "CLASSIFICATION_TYPE": "U",
    "NORAD_CAT_ID": 34273,
    "ELEMENT_SET_NO": 999,
    "REV_AT_EPOCH": 88317,
    "BSTAR": 0.0010679,
    "MEAN_MOTION_DOT": 5.212e-5,
    "MEAN_MOTION_DDOT": 0
},{
    "OBJECT_NAME": "COSMOS 2251 DEB",
    "OBJECT_ID": "1993-036LU",
    "EPOCH": "2025-11-21T20:58:00.120864",
    "MEAN_MOTION": 14.64386568,
    "ECCENTRICITY": 0.0022623,
    "INCLINATION": 74.0039,
    "RA_OF_ASC_NODE": 108.7547,
    "ARG_OF_PERICENTER": 259.2283,
    "MEAN_ANOMALY": 255.7789,
    "EPHEMERIS_TYPE": 0,
    "CLASSIFICATION_TYPE": "U",
    "NORAD_CAT_ID": 34274,
    "ELEMENT_SET_NO": 999,
    "REV_AT_EPOCH": 88370,
    "BSTAR": 0.0014512,
    "MEAN_MOTION_DOT": 7.677e-5,
    "MEAN_MOTION_DDOT": 0
},{
    "OBJECT_NAME": "COSMOS 2251 DEB",
    "OBJECT_ID": "1993-036LW",
    "EPOCH": "2025-11-21T22:00:56.174976",
    "MEAN_MOTION": 14.5700765,
    "ECCENTRICITY": 0.0022704,
    "INCLINATION": 74.0218,
    "RA_OF_ASC_NODE": 124.9014,
    "ARG_OF_PERICENTER": 272.9073,
    "MEAN_ANOMALY": 248.9962,
    "EPHEMERIS_TYPE": 0,
    "CLASSIFICATION_TYPE": "U",
    "NORAD_CAT_ID": 34276,
    "ELEMENT_SET_NO": 999,
    "REV_AT_EPOCH": 88289,
    "BSTAR": 0.0008255,
    "MEAN_MOTION_DOT": 3.697e-5,
    "MEAN_MOTION_DDOT": 0
},{
    "OBJECT_NAME": "COSMOS 2251 DEB",
    "OBJECT_ID": "1993-036MT",
    "EPOCH": "2025-11-22T00:24:18.880416",
    "MEAN_MOTION": 14.36602472,
    "ECCENTRICITY": 0.0016419,
    "INCLINATION": 74.0479,
    "RA_OF_ASC_NODE": 322.2864,
    "ARG_OF_PERICENTER": 36.5269,
    "MEAN_ANOMALY": 27.2027,
    "EPHEMERIS_TYPE": 0,
    "CLASSIFICATION_TYPE": "U",
    "NORAD_CAT_ID": 34297,
    "ELEMENT_SET_NO": 999,
    "REV_AT_EPOCH": 87767,
    "BSTAR": 0.00014108,
    "MEAN_MOTION_DOT": 3.89e-6,
    "MEAN_MOTION_DDOT": 0
},{
    "OBJECT_NAME": "COSMOS 2251 DEB",
    "OBJECT_ID": "1993-036MV",
    "EPOCH": "2025-11-22T02:49:51.153024",
    "MEAN_MOTION": 15.51019623,
    "ECCENTRICITY": 0.0026237,
    "INCLINATION": 73.9862,
    "RA_OF_ASC_NODE": 20.5898,
    "ARG_OF_PERICENTER": 90.2578,
    "MEAN_ANOMALY": 270.1641,
    "EPHEMERIS_TYPE": 0,
    "CLASSIFICATION_TYPE": "U",
    "NORAD_CAT_ID": 34299,
    "ELEMENT_SET_NO": 999,
    "REV_AT_EPOCH": 88689,
    "BSTAR": 0.0048495,
    "MEAN_MOTION_DOT": 0.00296478,
    "MEAN_MOTION_DDOT": 0
},{
    "OBJECT_NAME": "COSMOS 2251 DEB",
    "OBJECT_ID": "1993-036MX",
    "EPOCH": "2025-11-22T02:11:33.483264",
    "MEAN_MOTION": 14.83257316,
    "ECCENTRICITY": 0.0013307,
    "INCLINATION": 74.0063,
    "RA_OF_ASC_NODE": 207.6921,
    "ARG_OF_PERICENTER": 267.7537,
    "MEAN_ANOMALY": 220.2975,
    "EPHEMERIS_TYPE": 0,
    "CLASSIFICATION_TYPE": "U",
    "NORAD_CAT_ID": 34301,
    "ELEMENT_SET_NO": 999,
    "REV_AT_EPOCH": 88094,
    "BSTAR": 0.002545,
    "MEAN_MOTION_DOT": 0.00020877,
    "MEAN_MOTION_DDOT": 0
},{
    "OBJECT_NAME": "COSMOS 2251 DEB",
    "OBJECT_ID": "1993-036MY",
    "EPOCH": "2025-11-21T23:54:00.924192",
    "MEAN_MOTION": 14.39216592,
    "ECCENTRICITY": 0.0077625,
    "INCLINATION": 74.1774,
    "RA_OF_ASC_NODE": 161.5348,
    "ARG_OF_PERICENTER": 22.8144,
    "MEAN_ANOMALY": 129.2062,
    "EPHEMERIS_TYPE": 0,
    "CLASSIFICATION_TYPE": "U",
    "NORAD_CAT_ID": 34302,
    "ELEMENT_SET_NO": 999,
    "REV_AT_EPOCH": 87422,
    "BSTAR": 0.00067868,
    "MEAN_MOTION_DOT": 2.154e-5,
    "MEAN_MOTION_DDOT": 0
},{
    "OBJECT_NAME": "COSMOS 2251 DEB",
    "OBJECT_ID": "1993-036MZ",
    "EPOCH": "2025-11-22T00:30:38.592000",
    "MEAN_MOTION": 14.54132026,
    "ECCENTRICITY": 0.0135064,
    "INCLINATION": 74.0052,
    "RA_OF_ASC_NODE": 327.3033,
    "ARG_OF_PERICENTER": 111.1373,
    "MEAN_ANOMALY": 317.0474,
    "EPHEMERIS_TYPE": 0,
    "CLASSIFICATION_TYPE": "U",
    "NORAD_CAT_ID": 34303,
    "ELEMENT_SET_NO": 999,
    "REV_AT_EPOCH": 87661,
    "BSTAR": 0.00071521,
    "MEAN_MOTION_DOT": 3.385e-5,
    "MEAN_MOTION_DDOT": 0
},{
    "OBJECT_NAME": "COSMOS 2251 DEB",
    "OBJECT_ID": "1993-036NA",
    "EPOCH": "2025-11-21T23:40:54.310944",
    "MEAN_MOTION": 14.37618105,
    "ECCENTRICITY": 0.0128748,
    "INCLINATION": 74.0119,
    "RA_OF_ASC_NODE": 160.8664,
    "ARG_OF_PERICENTER": 302.9957,
    "MEAN_ANOMALY": 210.6222,
    "EPHEMERIS_TYPE": 0,
    "CLASSIFICATION_TYPE": "U",
    "NORAD_CAT_ID": 34304,
    "ELEMENT_SET_NO": 999,
    "REV_AT_EPOCH": 86998,
    "BSTAR": 0.0010519,
    "MEAN_MOTION_DOT": 3.447e-5,
    "MEAN_MOTION_DDOT": 0
},{
    "OBJECT_NAME": "COSMOS 2251 DEB",
    "OBJECT_ID": "1993-036ND",
    "EPOCH": "2025-11-21T11:22:01.187040",
    "MEAN_MOTION": 13.54281399,
    "ECCENTRICITY": 0.0392855,
    "INCLINATION": 74.0538,
    "RA_OF_ASC_NODE": 347.2412,
    "ARG_OF_PERICENTER": 182.8105,
    "MEAN_ANOMALY": 302.1683,
    "EPHEMERIS_TYPE": 0,
    "CLASSIFICATION_TYPE": "U",
    "NORAD_CAT_ID": 34307,
    "ELEMENT_SET_NO": 999,
    "REV_AT_EPOCH": 82574,
    "BSTAR": 0.00071593,
    "MEAN_MOTION_DOT": 7.77e-6,
    "MEAN_MOTION_DDOT": 0
},{
    "OBJECT_NAME": "COSMOS 2251 DEB",
    "OBJECT_ID": "1993-036NK",
    "EPOCH": "2025-11-22T02:50:41.314272",
    "MEAN_MOTION": 15.15161399,
    "ECCENTRICITY": 0.0008695,
    "INCLINATION": 73.9759,
    "RA_OF_ASC_NODE": 348.6749,
    "ARG_OF_PERICENTER": 123.0171,
    "MEAN_ANOMALY": 237.186,
    "EPHEMERIS_TYPE": 0,
    "CLASSIFICATION_TYPE": "U",
    "NORAD_CAT_ID": 34313,
    "ELEMENT_SET_NO": 999,
    "REV_AT_EPOCH": 88752,
    "BSTAR": 0.0027246,
    "MEAN_MOTION_DOT": 0.00051495,
    "MEAN_MOTION_DDOT": 0
}]
