COSMOS 2251 DEB         
1 34141U 93036LN  25325.35603270  .00009859  00000+0  25700-2 0  9993
2 34141  74.0114  69.0197 0050139 160.8093 256.5371 14.48852161873848
COSMOS 2251 DEB         
1 34270U 93036LQ  25326.06533045  .00003459  00000+0  64019-3 0  9994
2 34270  74.0115 346.4630 0048332 145.6629 214.7680 14.64993218887935
COSMOS 2251 DEB         
1 34271U 93036LR  25325.82082426  .00014300  00000+0  23726-2 0  9996
2 34271  74.0223 239.9477 0020485 296.2439 119.9515 14.70080193879279
COSMOS 2251 DEB         
1 34273U 93036LT  25325.90200580  .00005212  00000+0  10679-2 0  9995
2 34273  74.0342 127.2585 0014725 251.9249 233.5064 14.60927782883178
COSMOS 2251 DEB         
1 34274U 93036LU  25325.87361251  .00007677  00000+0  14512-2 0  9992
2 34274  74.0039 108.7547 0022623 259.2283 255.7789 14.64386568883703
COSMOS 2251 DEB         
1 34276U 93036LW  25325.91731684  .00003697  00000+0  82550-3 0  9996
2 34276  74.0218 124.9014 0022704 272.9073 248.9962 14.57007650882892
COSMOS 2251 DEB         
1 34297U 93036MT  25326.01688519  .00000389  00000+0  14108-3 0  9998
2 34297  74.0479 322.2864 0016419  36.5269  27.2027 14.36602472877677
COSMOS 2251 DEB         
1 34299U 93036MV  25326.11795316  .00296478  00000+0  48495-2 0  9996
2 34299  73.9862  20.5898 0026237  90.2578 270.1641 15.51019623886890
COSMOS 2251 DEB         
1 34301U 93036MX  25326.09135976  .00020877  00000+0  25450-2 0  9991
2 34301  74.0063 207.6921 0013307 267.7537 220.2975 14.83257316880947
COSMOS 2251 DEB         
1 34302U 93036MY  25325.99584403  .00002154  00000+0  67868-3 0  9991
2 34302  74.1774 161.5348 0077625  22.8144 129.2062 14.39216592874227
COSMOS 2251 DEB         
1 34303U 93036MZ  25326.02128000  .00003385  00000+0  71521-3 0  9992
2 34303  74.0052 327.3033 0135064 111.1373 317.0474 14.54132026876612
COSMOS 2251 DEB         
1 34304U 93036NA  25325.98673971  .00003447  00000+0  10519-2 0  9997
2 34304  74.0119 160.8664 0128748 302.9957 210.6222 14.37618105869985
COSMOS 2251 DEB         
1 34307U 93036ND  25325.47362485  .00000777  00000+0  71593-3 0  9992
2 34307  74.0538 347.2412 0392855 182.8105 302.1683 13.54281399825740
COSMOS 2251 DEB         
1 34313U 93036NK  25326.11853373  .00051495  00000+0  27246-2 0  9990
2 34313  73.9759 348.6749 0008695 123.0171 237.1860 15.15161399887528
